APRIZESAT 2             
1 28366U 04025A   23023.40706177  .00000348  00000+0  12348-3 0  9993
2 28366  98.1347 245.9415 0108145  33.9123 326.8917 14.36904806973409
SAUDICOMSAT 1           
1 28369U 04025D   23024.16018523  .00000969  00000+0  24478-3 0  9997
2 28369  98.4727 352.5700 0032571 217.6596 142.2319 14.53002932983958
SAUDICOMSAT 2           
1 28370U 04025E   23024.14618447  .00000945  00000+0  26221-3 0  9990
2 28370  98.5644 352.1276 0058487  54.0572 306.6026 14.47875402980584
APRIZESAT 1             
1 28372U 04025G   23023.82035764  .00000869  00000+0  23390-3 0  9990
2 28372  98.5253 351.7853 0045447 326.6260  33.2070 14.49958141982085
NANOSAT-1               
1 28493U 04049B   23024.10634257  .00002181  00000+0  33646-3 0  9998
2 28493  98.1174 130.1748 0003604 321.4768  38.6182 14.74408515972382
SAUDICOMSAT 7           
1 31119U 07012C   23023.83698819  .00001280  00000+0  25633-3 0  9999
2 31119  98.2124 332.9564 0060627 120.6076 240.1123 14.62370630840960
SAUDICOMSAT 6           
1 31121U 07012E   23024.06659436  .00001191  00000+0  25359-3 0  9996
2 31121  98.2514 328.4204 0074935 225.8572 133.6450 14.59141050839182
SAUDICOMSAT 5           
1 31124U 07012H   23024.12133698  .00001666  00000+0  32019-3 0  9991
2 31124  98.1821 334.6212 0052343  65.1320 295.5312 14.64123672841946
SAUDICOMSAT 3           
1 31125U 07012J   23023.83506343  .00002242  00000+0  41264-3 0  9993
2 31125  98.1485 335.5718 0043000  11.2250 348.9903 14.65999796842868
SAUDICOMSAT 4           
1 31127U 07012L   23023.65530051  .00001143  00000+0  23623-3 0  9996
2 31127  98.2346 331.2166 0067571 170.9402 189.3035 14.60875724840082
APRIZESAT 4             
1 35684U 09041D   23023.80672494  .00001583  00000+0  21334-3 0  9992
2 35684  98.2993  49.9043 0046657   6.3582 353.8211 14.79959918727707
APRIZESAT 3             
1 35686U 09041F   23023.70788684  .00002811  00000+0  29525-3 0  9997
2 35686  98.0996 120.2537 0071157 185.3773 174.6687 14.88477421731417
AISSAT 1                
1 36797U 10035C   23024.10792332  .00003849  00000+0  42710-3 0  9999
2 36797  98.2324 221.3047 0010777 165.8183 194.3337 14.87831342679378
S-NET D                 
1 43186U 18014G   23023.67550765  .00006000  00000+0  49940-3 0  9991
2 43186  97.6460 290.1364 0008301 275.5243  84.5033 14.99011526271899
S-NET B                 
1 43187U 18014H   23023.67600874  .00006070  00000+0  50520-3 0  9992
2 43187  97.6456 290.0771 0008213 275.5826  84.4461 14.99008561271894
S-NET A                 
1 43188U 18014J   23023.67629475  .00006069  00000+0  50510-3 0  9998
2 43188  97.6461 290.1544 0008218 275.8785  84.1501 14.99009006271899
S-NET C                 
1 43189U 18014K   23023.54403944  .00006121  00000+0  50945-3 0  9997
2 43189  97.6456 289.9329 0008087 276.6821  83.3481 14.99002352270428
SALSAT                  
1 46495U 20068K   23020.37026432  .00006526  00000+0  45307-3 0  9998
2 46495  97.7549 327.1702 0014040 261.2160  98.7476 15.05834602126813
